ONEWEB-0645             
1 55809U 23029P   24357.53020368 -.00000024  00000+0 -92249-4 0  9998
2 55809  87.9178  52.6872 0001581  93.3132 266.8181 13.19723322 87465
ONEWEB-0646             
1 55810U 23029Q   24357.56022259  .00000035  00000+0  54043-4 0  9994
2 55810  87.9174  52.6768 0001608 109.0517 251.0790 13.19723828 87451
ONEWEB-0648             
1 55811U 23029R   24357.53435160 -.00000197  00000+0 -56499-3 0  9998
2 55811  87.9004  37.4155 0000770  93.1212 267.0006 13.14502269 88232
ONEWEB-0649             
1 55812U 23029S   24357.59891660  .00000050  00000+0  93671-4 0  9996
2 55812  87.9172  52.6620 0001261 101.0036 259.1239 13.19723694 87493
ONEWEB-0650             
1 55813U 23029T   24357.21509074 -.00000083  00000+0 -24025-3 0  9995
2 55813  87.9173  52.7443 0001566 103.1173 257.0134 13.19724144 87416
ONEWEB-0652             
1 55814U 23029U   24357.59144142 -.00000041  00000+0 -14551-3 0  9995
2 55814  87.9004  37.4147 0001949  95.7393 264.3959 13.14502551 88212
ONEWEB-0653             
1 55815U 23029V   24357.49945331  .00000178  00000+0  44656-3 0  9992
2 55815  87.9007  37.4183 0001897  91.5120 268.6227 13.14504389 88238
ONEWEB-0654             
1 55816U 23029W   24357.57083048  .00000289  00000+0  74617-3 0  9993
2 55816  87.9003  37.4093 0002234  92.7167 267.4218 13.14502958 88265
